{"type": "FeatureCollection", "features": [ {"type": "Feature", "properties": {"norad_id": 32289, "name": "YAOGAN-3", "group": "resource", "lat": -7.858428748037802, "lon": -169.0785629506384, "alt_km": 602.8104379013294, "timestamp": "2025-12-11T08:58:26.770775+00:00", "meta": {"OBJECT_NAME": "YAOGAN-3", "OBJECT_ID": "2007-055A", "EPOCH": "2025-12-11T00:04:27.662016", "MEAN_MOTION": 14.89842198, "ECCENTRICITY": 0.00012777, "INCLINATION": 97.8367, "RA_OF_ASC_NODE": 11.6432, "ARG_OF_PERICENTER": 73.1289, "MEAN_ANOMALY": 287.0069, "EPHEMERIS_TYPE": 0, "CLASSIFICATION_TYPE": "U", "NORAD_CAT_ID": 32289, "ELEMENT_SET_NO": 999, "REV_AT_EPOCH": 97783, "BSTAR": 0.00036176875, "MEAN_MOTION_DOT": 3.42e-05, "MEAN_MOTION_DDOT": 0}, "tle": {"line1": "1 32289U 07055A   25345.00309794  .00003420  00000+0  36177-3 0  9997", "line2": "2 32289  97.8367  11.6432 0001277  73.1289 287.0069 14.89842198977830"}}, "geometry": {"type": "Point", "coordinates": [-169.0785629506384, -7.858428748037802]}}, {"type": "Feature", "properties": {"norad_id": 32376, "name": "COSMO-SKYMED 2", "group": "resource", "lat": 34.885365579468306, "lon": -7.739579964531117, "alt_km": 619.6927812264885, "timestamp": "2025-12-11T08:58:26.770787+00:00", "meta": {"OBJECT_NAME": "COSMO-SKYMED 2", "OBJECT_ID": "2007-059A", "EPOCH": "2025-12-11T03:27:47.120832", "MEAN_MOTION": 14.82163049, "ECCENTRICITY": 0.0001524, "INCLINATION": 97.8811, "RA_OF_ASC_NODE": 166.4921, "ARG_OF_PERICENTER": 85.1413, "MEAN_ANOMALY": 274.9974, "EPHEMERIS_TYPE": 0, "CLASSIFICATION_TYPE": "U", "NORAD_CAT_ID": 32376, "ELEMENT_SET_NO": 999, "REV_AT_EPOCH": 97414, "BSTAR": 0.0001181, "MEAN_MOTION_DOT": 8.88e-06, "MEAN_MOTION_DDOT": 0}, "tle": {"line1": "1 32376U 07059A   25345.14429538  .00000888  00000+0  11810-3 0  9994", "line2": "2 32376  97.8811 166.4921 0001524  85.1413 274.9974 14.82163049974145"}}, "geometry": {"type": "Point", "coordinates": [-7.739579964531117, 34.885365579468306]}}, {"type": "Feature", "properties": {"norad_id": 32382, "name": "RADARSAT-2", "group": "resource", "lat": -10.336001200608909, "lon": -8.438529685949987, "alt_km": 796.0621538015266, "timestamp": "2025-12-11T08:58:26.770799+00:00", "meta": {"OBJECT_NAME": "RADARSAT-2", "OBJECT_ID": "2007-061A", "EPOCH": "2025-12-11T03:59:05.849088", "MEAN_MOTION": 14.29980187, "ECCENTRICITY": 0.0001104, "INCLINATION": 98.5799, "RA_OF_ASC_NODE": 349.7788, "ARG_OF_PERICENTER": 86.7193, "MEAN_ANOMALY": 273.4115, "EPHEMERIS_TYPE": 0, "CLASSIFICATION_TYPE": "U", "NORAD_CAT_ID": 32382, "ELEMENT_SET_NO": 999, "REV_AT_EPOCH": 93908, "BSTAR": -9.2927e-05, "MEAN_MOTION_DOT": -2.83e-06, "MEAN_MOTION_DDOT": 0}, "tle": {"line1": "1 32382U 07061A   25345.16603992 -.00000283  00000+0 -92927-4 0  9994", "line2": "2 32382  98.5799 349.7788 0001104  86.7193 273.4115 14.29980187939084"}}, "geometry": {"type": "Point", "coordinates": [-8.438529685949987, -10.336001200608909]}}, {"type": "Feature", "properties": {"norad_id": 32783, "name": "CARTOSAT-2A", "group": "resource", "lat": -59.11444132341492, "lon": 48.47512350416704, "alt_km": 636.7875541829699, "timestamp": "2025-12-11T08:58:26.770810+00:00", "meta": {"OBJECT_NAME": "CARTOSAT-2A", "OBJECT_ID": "2008-021A", "EPOCH": "2025-12-11T04:22:23.707776", "MEAN_MOTION": 14.78933201, "ECCENTRICITY": 0.0012025, "INCLINATION": 97.7928, "RA_OF_ASC_NODE": 35.054, "ARG_OF_PERICENTER": 9.5945, "MEAN_ANOMALY": 350.5494, "EPHEMERIS_TYPE": 0, "CLASSIFICATION_TYPE": "U", "NORAD_CAT_ID": 32783, "ELEMENT_SET_NO": 999, "REV_AT_EPOCH": 95101, "BSTAR": 0.00021812, "MEAN_MOTION_DOT": 1.56e-05, "MEAN_MOTION_DDOT": 0}, "tle": {"line1": "1 32783U 08021A   25345.18221884  .00001560  00000+0  21812-3 0  9995", "line2": "2 32783  97.7928  35.0540 0012025   9.5945 350.5494 14.78933201951010"}}, "geometry": {"type": "Point", "coordinates": [48.47512350416704, -59.11444132341492]}}, {"type": "Feature", "properties": {"norad_id": 33320, "name": "HUANJING 1A (HJ-1A)", "group": "resource", "lat": 35.616802590124166, "lon": 159.25842914244538, "alt_km": 619.950698896223, "timestamp": "2025-12-11T08:58:26.770822+00:00", "meta": {"OBJECT_NAME": "HUANJING 1A (HJ-1A)", "OBJECT_ID": "2008-041A", "EPOCH": "2025-12-11T05:05:28.648032", "MEAN_MOTION": 14.83388594, "ECCENTRICITY": 0.0020333, "INCLINATION": 97.6547, "RA_OF_ASC_NODE": 333.5746, "ARG_OF_PERICENTER": 39.2916, "MEAN_ANOMALY": 320.977, "EPHEMERIS_TYPE": 0, "CLASSIFICATION_TYPE": "U", "NORAD_CAT_ID": 33320, "ELEMENT_SET_NO": 999, "REV_AT_EPOCH": 93053, "BSTAR": 0.00037616, "MEAN_MOTION_DOT": 3.046e-05, "MEAN_MOTION_DDOT": 0}, "tle": {"line1": "1 33320U 08041A   25345.21213713  .00003046  00000+0  37616-3 0  9991", "line2": "2 33320  97.6547 333.5746 0020333  39.2916 320.9770 14.83388594930534"}}, "geometry": {"type": "Point", "coordinates": [159.25842914244538, 35.616802590124166]}}, {"type": "Feature", "properties": {"norad_id": 33321, "name": "HUANJING 1B (HJ-1B)", "group": "resource", "lat": 7.008880408087073, "lon": -23.515652141080373, "alt_km": 614.4620980928594, "timestamp": "2025-12-11T08:58:26.770833+00:00", "meta": {"OBJECT_NAME": "HUANJING 1B (HJ-1B)", "OBJECT_ID": "2008-041B", "EPOCH": "2025-12-11T05:42:11.818656", "MEAN_MOTION": 14.82814578, "ECCENTRICITY": 0.0038282, "INCLINATION": 97.6403, "RA_OF_ASC_NODE": 337.2997, "ARG_OF_PERICENTER": 80.3351, "MEAN_ANOMALY": 280.2185, "EPHEMERIS_TYPE": 0, "CLASSIFICATION_TYPE": "U", "NORAD_CAT_ID": 33321, "ELEMENT_SET_NO": 999, "REV_AT_EPOCH": 93055, "BSTAR": 0.00022962, "MEAN_MOTION_DOT": 1.83e-05, "MEAN_MOTION_DDOT": 0}, "tle": {"line1": "1 33321U 08041B   25345.23763679  .00001830  00000+0  22962-3 0  9992", "line2": "2 33321  97.6403 337.2997 0038282  80.3351 280.2185 14.82814578930552"}}, "geometry": {"type": "Point", "coordinates": [-23.515652141080373, 7.008880408087073]}}, {"type": "Feature", "properties": {"norad_id": 33331, "name": "GEOEYE 1", "group": "resource", "lat": 78.72885670197678, "lon": 10.875487343349066, "alt_km": 672.1616402115069, "timestamp": "2025-12-11T08:58:26.770844+00:00", "meta": {"OBJECT_NAME": "GEOEYE 1", "OBJECT_ID": "2008-042A", "EPOCH": "2025-12-11T05:19:17.301792", "MEAN_MOTION": 14.6480927, "ECCENTRICITY": 0.0002746, "INCLINATION": 98.1254, "RA_OF_ASC_NODE": 56.5214, "ARG_OF_PERICENTER": 283.1614, "MEAN_ANOMALY": 76.9282, "EPHEMERIS_TYPE": 0, "CLASSIFICATION_TYPE": "U", "NORAD_CAT_ID": 33331, "ELEMENT_SET_NO": 999, "REV_AT_EPOCH": 92263, "BSTAR": 0.00018686, "MEAN_MOTION_DOT": 9.49e-06, "MEAN_MOTION_DDOT": 0}, "tle": {"line1": "1 33331U 08042A   25345.22172803  .00000949  00000+0  18686-3 0  9994", "line2": "2 33331  98.1254  56.5214 0002746 283.1614  76.9282 14.64809270922638"}}, "geometry": {"type": "Point", "coordinates": [10.875487343349066, 78.72885670197678]}}, {"type": "Feature", "properties": {"norad_id": 33396, "name": "THEOS", "group": "resource", "lat": 21.15739325143595, "lon": -133.1443997737411, "alt_km": 824.474101000571, "timestamp": "2025-12-11T08:58:26.770855+00:00", "meta": {"OBJECT_NAME": "THEOS", "OBJECT_ID": "2008-049A", "EPOCH": "2025-12-11T04:50:54.139200", "MEAN_MOTION": 14.20096201, "ECCENTRICITY": 0.0001129, "INCLINATION": 98.5865, "RA_OF_ASC_NODE": 43.3365, "ARG_OF_PERICENTER": 96.3555, "MEAN_ANOMALY": 263.775, "EPHEMERIS_TYPE": 0, "CLASSIFICATION_TYPE": "U", "NORAD_CAT_ID": 33396, "ELEMENT_SET_NO": 999, "REV_AT_EPOCH": 89128, "BSTAR": 5.1415e-05, "MEAN_MOTION_DOT": 6.7e-07, "MEAN_MOTION_DDOT": 0}, "tle": {"line1": "1 33396U 08049A   25345.20201550  .00000067  00000+0  51415-4 0  9991", "line2": "2 33396  98.5865  43.3365 0001129  96.3555 263.7750 14.20096201891280"}}, "geometry": {"type": "Point", "coordinates": [-133.1443997737411, 21.15739325143595]}}, {"type": "Feature", "properties": {"norad_id": 33412, "name": "COSMO-SKYMED 3", "group": "resource", "lat": -7.37289061670293, "lon": 14.719897710935767, "alt_km": 543.5852214130527, "timestamp": "2025-12-11T08:58:26.770866+00:00", "meta": {"OBJECT_NAME": "COSMO-SKYMED 3", "OBJECT_ID": "2008-054A", "EPOCH": "2025-12-11T03:21:31.285152", "MEAN_MOTION": 15.05329975, "ECCENTRICITY": 0.0015851, "INCLINATION": 97.8461, "RA_OF_ASC_NODE": 195.5045, "ARG_OF_PERICENTER": 179.4936, "MEAN_ANOMALY": 180.6309, "EPHEMERIS_TYPE": 0, "CLASSIFICATION_TYPE": "U", "NORAD_CAT_ID": 33412, "ELEMENT_SET_NO": 999, "REV_AT_EPOCH": 92863, "BSTAR": 0.0005758, "MEAN_MOTION_DOT": 8.205e-05, "MEAN_MOTION_DDOT": 0}, "tle": {"line1": "1 33412U 08054A   25345.13994543  .00008205  00000+0  57580-3 0  9999", "line2": "2 33412  97.8461 195.5045 0015851 179.4936 180.6309 15.05329975928639"}}, "geometry": {"type": "Point", "coordinates": [14.719897710935767, -7.37289061670293]}}, {"type": "Feature", "properties": {"norad_id": 33446, "name": "YAOGAN-4", "group": "resource", "lat": -77.46508575407856, "lon": -45.76028609135566, "alt_km": 621.8394862915729, "timestamp": "2025-12-11T08:58:26.770876+00:00", "meta": {"OBJECT_NAME": "YAOGAN-4", "OBJECT_ID": "2008-061A", "EPOCH": "2025-12-10T18:45:27.285984", "MEAN_MOTION": 14.82672885, "ECCENTRICITY": 0.00137394, "INCLINATION": 97.9179, "RA_OF_ASC_NODE": 274.9001, "ARG_OF_PERICENTER": 330.1294, "MEAN_ANOMALY": 29.9134, "EPHEMERIS_TYPE": 0, "CLASSIFICATION_TYPE": "U", "NORAD_CAT_ID": 33446, "ELEMENT_SET_NO": 999, "REV_AT_EPOCH": 91774, "BSTAR": 0.00030466827, "MEAN_MOTION_DOT": 2.407e-05, "MEAN_MOTION_DDOT": 0}, "tle": {"line1": "1 33446U 08061A   25344.78156581  .00002407  00000+0  30467-3 0  9999", "line2": "2 33446  97.9179 274.9001 0013739 330.1294  29.9134 14.82672885917749"}}, "geometry": {"type": "Point", "coordinates": [-45.76028609135566, -77.46508575407856]}}]}